ONEWEB-0275             
1 48993U 21060AC  24312.53290947  .00000116  00000+0  26939-3 0  9992
2 48993  87.9109 345.6493 0001955  91.0659 269.0696 13.16594817162364
ONEWEB-0276             
1 48994U 21060AD  24312.11017410 -.00000002  00000+0 -38678-4 0  9999
2 48994  87.9109 345.7295 0001896  86.8762 273.2586 13.16594594162320
ONEWEB-0277             
1 48995U 21060AE  24312.35083183  .00000038  00000+0  66988-4 0  9998
2 48995  87.9108 345.7191 0002191  84.6779 275.4602 13.16595100162347
ONEWEB-0278             
1 48996U 21060AF  24312.34132995  .00000044  00000+0  81753-4 0  9998
2 48996  87.9109 345.6804 0001547  91.5640 268.5668 13.16595468162473
ONEWEB-0279             
1 48997U 21060AG  24312.57723788 -.00000027  00000+0 -10498-3 0  9990
2 48997  87.9109 345.6305 0002184  88.5880 271.5501 13.16594261162436
ONEWEB-0280             
1 48998U 21060AH  24312.51630752  .00000115  00000+0  26829-3 0  9994
2 48998  87.9109 345.6463 0001830  81.8085 278.3254 13.16595032163654
ONEWEB-0281             
1 48999U 21060AJ  24312.52182406  .00000091  00000+0  20386-3 0  9999
2 48999  87.9105 345.6453 0001970  98.6869 261.4485 13.16595186163740
ONEWEB-0282             
1 49000U 21060AK  24312.55190787  .00000136  00000+0  32111-3 0  9996
2 49000  87.9108 345.6560 0001897  85.0360 275.0987 13.16595316163732
